H1 CPF 01  gfz 2022 03 23 01  5821 terrasarx 
H2 0702601  6201 31698    2022 03 23 00 59 42 2022 03 28 00 00 42   120 1 1  0 0 0
H9
10 0 59662  66222.000000  0   -4340317.163   1112278.056  -5239883.615
10 0 59662  66342.000000  0   -3592060.660   1141741.133  -5773169.366
10 0 59662  66462.000000  0   -2781254.646   1137751.680  -6205567.412
10 0 59662  66582.000000  0   -1922601.505   1099429.817  -6529613.668
10 0 59662  66702.000000  0   -1031609.737   1026751.078  -6739726.430
10 0 59662  66822.000000  0    -124316.175    920556.908  -6832291.193
10 0 59662  66942.000000  0     782995.537    782546.661  -6805715.345
10 0 59662  67062.000000  0    1674079.575    615250.945  -6660455.104
10 0 59662  67182.000000  0    2533013.455    421986.361  -6399008.821
10 0 59662  67302.000000  0    3344476.991    206792.927  -6025878.546
10 0 59662  67422.000000  0    4094022.399    -25645.722  -5547499.757
10 0 59662  67542.000000  0    4768330.313   -270098.241  -4972140.972
10 0 59662  67662.000000  0    5355451.155   -520895.476  -4309773.264
10 0 59662  67782.000000  0    5845024.844   -772053.377  -3571907.354
10 0 59662  67902.000000  0    6228473.729  -1017406.231  -2771402.125
10 0 59662  68022.000000  0    6499165.124  -1250747.959  -1922246.197
10 0 59662  68142.000000  0    6652538.840  -1465977.589  -1039314.974
10 0 59662  68262.000000  0    6686194.920  -1657245.467   -138107.902
10 0 59662  68382.000000  0    6599939.797  -1819096.804    765528.627
10 0 59662  68502.000000  0    6395787.996  -1946608.700   1655688.251
10 0 59662  68622.000000  0    6077918.888  -2035517.106   2516693.361
10 0 59662  68742.000000  0    5652589.941  -2082330.019   3333380.577
10 0 59662  68862.000000  0    5128007.448  -2084423.780   4091374.859
10 0 59662  68982.000000  0    4514159.877  -2040120.733   4777346.061
10 0 59662  69102.000000  0    3822619.934  -1948745.649   5379244.455
10 0 59662  69222.000000  0    3066317.559  -1810661.129   5886512.466
10 0 59662  69342.000000  0    2259289.153  -1627280.162   6290265.344
10 0 59662  69462.000000  0    1416411.561  -1401056.589   6583440.846
10 0 59662  69582.000000  0     553123.785  -1135453.547   6760917.113
10 0 59662  69702.000000  0    -314857.880   -834889.746   6819596.397
10 0 59662  69822.000000  0   -1171825.475   -504665.380   6758454.545
10 0 59662  69942.000000  0   -2002362.146   -150868.917   6578557.527
10 0 59662  70062.000000  0   -2791618.128    219734.641   6283044.223
10 0 59662  70182.000000  0   -3525576.338    599831.998   5877076.044
10 0 59662  70302.000000  0   -4191304.105    981704.008   5367752.908
10 0 59662  70422.000000  0   -4777186.454   1357380.245   4763995.149
10 0 59662  70542.000000  0   -5273136.075   1718803.750   4076392.785
10 0 59662  70662.000000  0   -5670775.294   2058001.673   3317023.027
10 0 59662  70782.000000  0   -5963585.768   2367258.449   2499239.927
10 0 59662  70902.000000  0   -6147023.651   2639287.643   1637438.949
10 0 59662  71022.000000  0   -6218596.950   2867398.642    746799.244
10 0 59662  71142.000000  0   -6177900.633   3045653.211   -156991.447
10 0 59662  71262.000000  0   -6026609.575   3169007.913  -1058021.529
10 0 59662  71382.000000  0   -5768429.656   3233438.362  -1940444.610
10 0 59662  71502.000000  0   -5409007.973   3236043.177  -2788767.255
10 0 59662  71622.000000  0   -4955803.484   3175123.651  -3588127.207
10 0 59662  71742.000000  0   -4417923.841   3050238.271  -4324556.291
10 0 59662  71862.000000  0   -3805932.741   2862231.013  -4985222.386
10 0 59662  71982.000000  0   -3131633.670   2613233.152  -5558646.948
10 0 59662  72102.000000  0   -2407836.592   2306640.034  -6034894.700
10 0 59662  72222.000000  0   -1648110.889   1947063.379  -6405736.313
10 0 59662  72342.000000  0    -866529.229   1540259.182  -6664778.334
10 0 59662  72462.000000  0     -77409.930   1093034.524  -6807562.327
10 0 59662  72582.000000  0     704939.660    613134.312  -6831632.724
10 0 59662  72702.000000  0    1466476.079    109110.050  -6736576.363
10 0 59662  72822.000000  0    2193667.184   -409829.556  -6524028.339
10 0 59662  72942.000000  0    2873726.746   -933982.272  -6197646.626
10 0 59662  73062.000000  0    3494836.565  -1453328.965  -5763055.797
10 0 59662  73182.000000  0    4046350.828  -1957719.914  -5227760.048
10 0 59662  73302.000000  0    4518982.326  -2437070.819  -4601025.499
10 0 59662  73422.000000  0    4904964.379  -2881563.340  -3893730.220
10 0 59662  73542.000000  0    5198185.880  -3281845.693  -3118185.228
10 0 59662  73662.000000  0    5394297.560  -3629229.774  -2287927.331
10 0 59662  73782.000000  0    5490784.994  -3915880.012  -1417485.698
10 0 59662  73902.000000  0    5487005.921  -4134989.518   -522127.364
10 0 59662  74022.000000  0    5384190.792  -4280938.836    382414.523
10 0 59662  74142.000000  0    5185405.484  -4349433.247   1280224.431
10 0 59662  74262.000000  0    4895475.436  -4337613.675   2155493.619
10 0 59662  74382.000000  0    4520874.527  -4244137.587   2992807.488
10 0 59662  74502.000000  0    4069581.796  -4069228.939   3777424.071
10 0 59662  74622.000000  0    3550909.740  -3814697.135   4495539.341
10 0 59662  74742.000000  0    2975306.931  -3483922.792   5134533.426
10 0 59662  74862.000000  0    2354142.532  -3081811.199   5683191.599
10 0 59662  74982.000000  0    1699477.014  -2614715.790   6131898.856
10 0 59662  75102.000000  0    1023823.570  -2090333.082   6472802.705
10 0 59662  75222.000000  0     339906.637  -1517572.352   6699944.376
10 0 59662  75342.000000  0    -339578.569   -906401.792   6809357.092
10 0 59662  75462.000000  0   -1002200.944   -267673.353   6799130.654
10 0 59662  75582.000000  0   -1636019.812    387069.820   6669442.449
10 0 59662  75702.000000  0   -2229799.328   1045801.462   6422554.610
10 0 59662  75822.000000  0   -2773207.658   1696232.100   6062777.149
10 0 59662  75942.000000  0   -3256997.864   2326037.584   5596397.713
10 0 59662  76062.000000  0   -3673168.527   2923093.461   5031578.544
10 0 59662  76182.000000  0   -4015100.695   3475710.563   4378219.264
10 0 59662  76302.000000  0   -4277668.313   3972867.083   3647788.447
10 0 59662  76422.000000  0   -4457320.034   4404433.083   2853125.354
10 0 59662  76542.000000  0   -4552129.043   4761381.950   2008213.745
10 0 59662  76662.000000  0   -4561809.396   5035983.005   1127932.301
10 0 59662  76782.000000  0   -4487699.778   5221969.607    227786.986
10 0 59662  76902.000000  0   -4332714.981   5314680.315   -676369.252
10 0 59662  77022.000000  0   -4101264.511   5311169.378  -1568626.259
10 0 59662  77142.000000  0   -3799138.804   5210278.711  -2433306.429
10 0 59662  77262.000000  0   -3433369.767   5012675.947  -3255246.598
10 0 59662  77382.000000  0   -3012067.746   4720853.609  -4020068.586
10 0 59662  77502.000000  0   -2544240.359   4339091.761  -4714429.814
10 0 59662  77622.000000  0   -2039598.271   3873387.135  -5326250.597
10 0 59662  77742.000000  0   -1508353.386   3331351.904  -5844916.513
10 0 59662  77862.000000  0    -961012.334   2722081.876  -6261453.901
10 0 59662  77982.000000  0    -408169.705   2055997.651  -6568673.940
10 0 59662  78102.000000  0     139693.864   1344664.071  -6761284.857
10 0 59662  78222.000000  0     672405.317    600590.257  -6835973.895
10 0 59662  78342.000000  0    1180283.938   -162986.582  -6791458.934
10 0 59662  78462.000000  0    1654313.292   -932332.384  -6628507.120
10 0 59662  78582.000000  0    2086296.880  -1693456.789  -6349922.062
10 0 59662  78702.000000  0    2468997.670  -2432360.899  -5960501.127
10 0 59662  78822.000000  0    2796258.830  -3135289.566  -5466962.849
10 0 59662  78942.000000  0    3063105.256  -3788987.505  -4877842.728
10 0 59662  79062.000000  0    3265821.408  -4380950.586  -4203354.352
10 0 59662  79182.000000  0    3402004.229  -4899666.912  -3455222.740
10 0 59662  79302.000000  0    3470592.490  -5334847.100  -2646490.656
10 0 59662  79422.000000  0    3471869.263  -5677637.554  -1791295.948
10 0 59662  79542.000000  0    3407437.109  -5920808.276   -904625.284
10 0 59662  79662.000000  0    3280166.337  -6058912.772     -2048.438
10 0 59662  79782.000000  0    3094115.526  -6088412.922    900561.687
10 0 59662  79902.000000  0    2854428.322  -6007767.402   1787315.515
10 0 59662  80022.000000  0    2567208.026  -5817479.339   2642597.123
10 0 59662  80142.000000  0    2239371.911  -5520101.007   3451347.423
10 0 59662  80262.000000  0    1878491.104  -5120198.237   4199334.568
10 0 59662  80382.000000  0    1492619.777  -4624275.493   4873408.341
10 0 59662  80502.000000  0    1090118.556  -4040662.662   5461732.368
10 0 59662  80622.000000  0     679474.586  -3379366.431   5953991.755
10 0 59662  80742.000000  0     269123.023  -2651889.066   6341568.541
10 0 59662  80862.000000  0    -132724.725  -1871022.208   6617685.415
10 0 59662  80982.000000  0    -518243.303  -1050618.832   6777517.804
10 0 59662  81102.000000  0    -880144.392   -205345.985   6818274.321
10 0 59662  81222.000000  0   -1211813.458    649578.379   6739242.679
10 0 59662  81342.000000  0   -1507430.194   1498659.019   6541800.990
10 0 59662  81462.000000  0   -1762070.546   2326403.298   6229395.225
10 0 59662  81582.000000  0   -1971789.387   3117603.751   5807482.920
10 0 59662  81702.000000  0   -2133681.929   3857618.705   5283443.009
10 0 59662  81822.000000  0   -2245923.548   4532646.770   4666453.961
10 0 59662  81942.000000  0   -2307787.277   5129990.887   3967338.694
10 0 59662  82062.000000  0   -2319637.906   5638305.450   3198378.405
10 0 59662  82182.000000  0   -2282902.779   6047820.328   2373097.251
10 0 59662  82302.000000  0   -2200019.808   6350536.916   1506022.911
10 0 59662  82422.000000  0   -2074363.371   6540391.743    612426.278
10 0 59662  82542.000000  0   -1910150.088   6613382.825   -291954.166
10 0 59662  82662.000000  0   -1712327.197   6567655.854  -1191197.984
99
